[{"OBJECT_NAME":"STARLINK-32487","OBJECT_ID":"2024-210E","EPOCH":"2025-12-19T19:38:21.261696","MEAN_MOTION":15.27582639,"ECCENTRICITY":9.48e-5,"INCLINATION":43.0008,"RA_OF_ASC_NODE":270.9828,"ARG_OF_PERICENTER":261.3465,"MEAN_ANOMALY":98.728,"EPHEMERIS_TYPE":0,"CLASSIFICATION_TYPE":"U","NORAD_CAT_ID":61963,"ELEMENT_SET_NO":999,"REV_AT_EPOCH":6269,"BSTAR":0.00054115,"MEAN_MOTION_DOT":0.0001466,"MEAN_MOTION_DDOT":0},{"OBJECT_NAME":"STARLINK-32513","OBJECT_ID":"2024-210F","EPOCH":"2025-12-19T02:36:19.049184","MEAN_MOTION":15.27600218,"ECCENTRICITY":0.00020499,"INCLINATION":43.0012,"RA_OF_ASC_NODE":260.4099,"ARG_OF_PERICENTER":266.2673,"MEAN_ANOMALY":93.7944,"EPHEMERIS_TYPE":0,"CLASSIFICATION_TYPE":"U","NORAD_CAT_ID":61964,"ELEMENT_SET_NO":999,"REV_AT_EPOCH":6275,"BSTAR":0.00078501765,"MEAN_MOTION_DOT":0.00021416,"MEAN_MOTION_DDOT":0},{"OBJECT_NAME":"STARLINK-32514","OBJECT_ID":"2024-210G","EPOCH":"2025-12-19T11:24:54.448416","MEAN_MOTION":15.27609578,"ECCENTRICITY":0.0001526,"INCLINATION":42.998,"RA_OF_ASC_NODE":265.7965,"ARG_OF_PERICENTER":284.0004,"MEAN_ANOMALY":76.0678,"EPHEMERIS_TYPE":0,"CLASSIFICATION_TYPE":"U","NORAD_CAT_ID":61965,"ELEMENT_SET_NO":999,"REV_AT_EPOCH":6272,"BSTAR":0.0010377,"MEAN_MOTION_DOT":0.0002843,"MEAN_MOTION_DDOT":0},{"OBJECT_NAME":"STARLINK-32498","OBJECT_ID":"2024-210H","EPOCH":"2025-12-19T03:50:06.631872","MEAN_MOTION":15.27592829,"ECCENTRICITY":0.00018733,"INCLINATION":43.0019,"RA_OF_ASC_NODE":259.9351,"ARG_OF_PERICENTER":257.5465,"MEAN_ANOMALY":102.5177,"EPHEMERIS_TYPE":0,"CLASSIFICATION_TYPE":"U","NORAD_CAT_ID":61966,"ELEMENT_SET_NO":999,"REV_AT_EPOCH":6276,"BSTAR":0.00041182594,"MEAN_MOTION_DOT":0.00011092,"MEAN_MOTION_DDOT":0},{"OBJECT_NAME":"STARLINK-32518","OBJECT_ID":"2024-210J","EPOCH":"2025-12-18T18:46:09.197760","MEAN_MOTION":15.27587034,"ECCENTRICITY":8.937e-5,"INCLINATION":42.9986,"RA_OF_ASC_NODE":269.8586,"ARG_OF_PERICENTER":293.7827,"MEAN_ANOMALY":66.2931,"EPHEMERIS_TYPE":0,"CLASSIFICATION_TYPE":"U","NORAD_CAT_ID":61967,"ELEMENT_SET_NO":999,"REV_AT_EPOCH":6248,"BSTAR":0.0006516922,"MEAN_MOTION_DOT":0.00017718,"MEAN_MOTION_DDOT":0},{"OBJECT_NAME":"STARLINK-32471","OBJECT_ID":"2024-210K","EPOCH":"2025-12-19T11:10:06.627072","MEAN_MOTION":15.27587059,"ECCENTRICITY":7.99e-5,"INCLINATION":43.0015,"RA_OF_ASC_NODE":265.7213,"ARG_OF_PERICENTER":352.853,"MEAN_ANOMALY":7.231,"EPHEMERIS_TYPE":0,"CLASSIFICATION_TYPE":"U","NORAD_CAT_ID":61968,"ELEMENT_SET_NO":999,"REV_AT_EPOCH":6273,"BSTAR":0.00092123,"MEAN_MOTION_DOT":0.0002518,"MEAN_MOTION_DDOT":0},{"OBJECT_NAME":"STARLINK-32450","OBJECT_ID":"2024-210L","EPOCH":"2025-12-19T11:15:39.555648","MEAN_MOTION":15.27587676,"ECCENTRICITY":0.0001094,"INCLINATION":43.0034,"RA_OF_ASC_NODE":265.7462,"ARG_OF_PERICENTER":290.9182,"MEAN_ANOMALY":69.1553,"EPHEMERIS_TYPE":0,"CLASSIFICATION_TYPE":"U","NORAD_CAT_ID":61969,"ELEMENT_SET_NO":999,"REV_AT_EPOCH":6259,"BSTAR":0.00091519,"MEAN_MOTION_DOT":0.00025013,"MEAN_MOTION_DDOT":0},{"OBJECT_NAME":"STARLINK-32613","OBJECT_ID":"2024-210M","EPOCH":"2025-12-19T12:13:29.972352","MEAN_MOTION":15.27547322,"ECCENTRICITY":0.0001523,"INCLINATION":43.0024,"RA_OF_ASC_NODE":272.9645,"ARG_OF_PERICENTER":263.5701,"MEAN_ANOMALY":96.4978,"EPHEMERIS_TYPE":0,"CLASSIFICATION_TYPE":"U","NORAD_CAT_ID":61970,"ELEMENT_SET_NO":999,"REV_AT_EPOCH":6265,"BSTAR":-2.6501e-5,"MEAN_MOTION_DOT":-9.91e-6,"MEAN_MOTION_DDOT":0},{"OBJECT_NAME":"STARLINK-32610","OBJECT_ID":"2024-210N","EPOCH":"2025-12-19T04:11:35.866752","MEAN_MOTION":15.27603568,"ECCENTRICITY":0.00011263,"INCLINATION":43.0037,"RA_OF_ASC_NODE":274.7543,"ARG_OF_PERICENTER":343.4584,"MEAN_ANOMALY":16.6231,"EPHEMERIS_TYPE":0,"CLASSIFICATION_TYPE":"U","NORAD_CAT_ID":61971,"ELEMENT_SET_NO":999,"REV_AT_EPOCH":6260,"BSTAR":0.0008080728,"MEAN_MOTION_DOT":0.00022057,"MEAN_MOTION_DDOT":0},{"OBJECT_NAME":"STARLINK-32612","OBJECT_ID":"2024-210P","EPOCH":"2025-12-19T04:17:08.498976","MEAN_MOTION":15.27591101,"ECCENTRICITY":0.000156,"INCLINATION":43.0036,"RA_OF_ASC_NODE":274.7814,"ARG_OF_PERICENTER":265.1824,"MEAN_ANOMALY":94.885,"EPHEMERIS_TYPE":0,"CLASSIFICATION_TYPE":"U","NORAD_CAT_ID":61972,"ELEMENT_SET_NO":999,"REV_AT_EPOCH":6256,"BSTAR":0.0003961966,"MEAN_MOTION_DOT":0.0001066,"MEAN_MOTION_DDOT":0},{"OBJECT_NAME":"STARLINK-32601","OBJECT_ID":"2024-210Q","EPOCH":"2025-12-19T03:08:40.971264","MEAN_MOTION":15.2759621,"ECCENTRICITY":0.0001032,"INCLINATION":42.9979,"RA_OF_ASC_NODE":274.4293,"ARG_OF_PERICENTER":270.0171,"MEAN_ANOMALY":90.0563,"EPHEMERIS_TYPE":0,"CLASSIFICATION_TYPE":"U","NORAD_CAT_ID":61973,"ELEMENT_SET_NO":999,"REV_AT_EPOCH":6256,"BSTAR":0.00063429107,"MEAN_MOTION_DOT":0.00017242,"MEAN_MOTION_DDOT":0},{"OBJECT_NAME":"STARLINK-32593","OBJECT_ID":"2024-210R","EPOCH":"2025-12-19T02:57:47.513376","MEAN_MOTION":15.27600393,"ECCENTRICITY":0.00012076,"INCLINATION":43.0013,"RA_OF_ASC_NODE":275.2319,"ARG_OF_PERICENTER":269.0101,"MEAN_ANOMALY":91.0612,"EPHEMERIS_TYPE":0,"CLASSIFICATION_TYPE":"U","NORAD_CAT_ID":61974,"ELEMENT_SET_NO":999,"REV_AT_EPOCH":6255,"BSTAR":0.00068986927,"MEAN_MOTION_DOT":0.00018782,"MEAN_MOTION_DDOT":0},{"OBJECT_NAME":"STARLINK-32586","OBJECT_ID":"2024-210S","EPOCH":"2025-12-19T19:32:48.542208","MEAN_MOTION":15.27593419,"ECCENTRICITY":0.000113,"INCLINATION":42.9973,"RA_OF_ASC_NODE":270.9549,"ARG_OF_PERICENTER":41.9218,"MEAN_ANOMALY":318.172,"EPHEMERIS_TYPE":0,"CLASSIFICATION_TYPE":"U","NORAD_CAT_ID":61975,"ELEMENT_SET_NO":999,"REV_AT_EPOCH":6266,"BSTAR":0.00077754,"MEAN_MOTION_DOT":0.00021204,"MEAN_MOTION_DDOT":0},{"OBJECT_NAME":"STARLINK-32611","OBJECT_ID":"2024-210T","EPOCH":"2025-12-19T03:45:42.790464","MEAN_MOTION":15.27584991,"ECCENTRICITY":8.82e-5,"INCLINATION":43.0036,"RA_OF_ASC_NODE":274.6167,"ARG_OF_PERICENTER":291.3391,"MEAN_ANOMALY":68.7366,"EPHEMERIS_TYPE":0,"CLASSIFICATION_TYPE":"U","NORAD_CAT_ID":61976,"ELEMENT_SET_NO":999,"REV_AT_EPOCH":6256,"BSTAR":0.00097169278,"MEAN_MOTION_DOT":0.00026577,"MEAN_MOTION_DDOT":0},{"OBJECT_NAME":"STARLINK-32607","OBJECT_ID":"2024-210U","EPOCH":"2025-12-19T19:47:36.595968","MEAN_MOTION":15.27604171,"ECCENTRICITY":0.0002461,"INCLINATION":43.002,"RA_OF_ASC_NODE":271.0304,"ARG_OF_PERICENTER":297.8606,"MEAN_ANOMALY":62.1996,"EPHEMERIS_TYPE":0,"CLASSIFICATION_TYPE":"U","NORAD_CAT_ID":61977,"ELEMENT_SET_NO":999,"REV_AT_EPOCH":6270,"BSTAR":0.00086293,"MEAN_MOTION_DOT":0.00023578,"MEAN_MOTION_DDOT":0},{"OBJECT_NAME":"STARLINK-32606","OBJECT_ID":"2024-210V","EPOCH":"2025-12-19T11:14:16.306656","MEAN_MOTION":15.27596784,"ECCENTRICITY":0.0001217,"INCLINATION":42.9968,"RA_OF_ASC_NODE":272.6517,"ARG_OF_PERICENTER":18.2308,"MEAN_ANOMALY":341.8587,"EPHEMERIS_TYPE":0,"CLASSIFICATION_TYPE":"U","NORAD_CAT_ID":61978,"ELEMENT_SET_NO":999,"REV_AT_EPOCH":6261,"BSTAR":0.00065314,"MEAN_MOTION_DOT":0.00017763,"MEAN_MOTION_DDOT":0}]
