STARLINK-32487          
1 61963U 24210E   25353.81830164  .00014660  00000+0  54115-3 0  9998
2 61963  43.0008 270.9828 0000948 261.3465  98.7280 15.27582639 62691
STARLINK-32513          
1 61964U 24210F   25353.10855381  .00021416  00000+0  78502-3 0  9992
2 61964  43.0012 260.4099 0002049 266.2673  93.7944 15.27600218 62753
STARLINK-32514          
1 61965U 24210G   25353.47563019  .00028430  00000+0  10377-2 0  9995
2 61965  42.9980 265.7965 0001526 284.0004  76.0678 15.27609578 62724
STARLINK-32498          
1 61966U 24210H   25353.15979898  .00011092  00000+0  41183-3 0  9993
2 61966  43.0019 259.9351 0001873 257.5465 102.5177 15.27592829 62768
STARLINK-32518          
1 61967U 24210J   25352.78205090  .00017718  00000+0  65169-3 0  9999
2 61967  42.9986 269.8586 0000893 293.7827  66.2931 15.27587034 62480
STARLINK-32471          
1 61968U 24210K   25353.46535448  .00025180  00000+0  92123-3 0  9991
2 61968  43.0015 265.7213 0000799 352.8530   7.2310 15.27587059 62732
STARLINK-32450          
1 61969U 24210L   25353.46920782  .00025013  00000+0  91519-3 0  9994
2 61969  43.0034 265.7462 0001094 290.9182  69.1553 15.27587676 62599
STARLINK-32613          
1 61970U 24210M   25353.50937468 -.00000991  00000+0 -26501-4 0  9990
2 61970  43.0024 272.9645 0001523 263.5701  96.4978 15.27547322 62658
STARLINK-32610          
1 61971U 24210N   25353.17472068  .00022057  00000+0  80807-3 0  9997
2 61971  43.0037 274.7543 0001126 343.4584  16.6231 15.27603568 62602
STARLINK-32612          
1 61972U 24210P   25353.17857059  .00010660  00000+0  39620-3 0  9999
2 61972  43.0036 274.7814 0001560 265.1824  94.8850 15.27591101 62561
STARLINK-32601          
1 61973U 24210Q   25353.13102976  .00017242  00000+0  63429-3 0  9994
2 61973  42.9979 274.4293 0001032 270.0171  90.0563 15.27596210 62563
STARLINK-32593          
1 61974U 24210R   25353.12346659  .00018782  00000+0  68987-3 0  9996
2 61974  43.0013 275.2319 0001207 269.0101  91.0612 15.27600393 62551
STARLINK-32586          
1 61975U 24210S   25353.81445072  .00021204  00000+0  77754-3 0  9997
2 61975  42.9973 270.9549 0001130  41.9218 318.1720 15.27593419 62668
STARLINK-32611          
1 61976U 24210T   25353.15674526  .00026577  00000+0  97169-3 0  9993
2 61976  43.0036 274.6167 0000882 291.3391  68.7366 15.27584991 62562
STARLINK-32607          
1 61977U 24210U   25353.82472912  .00023578  00000+0  86293-3 0  9997
2 61977  43.0020 271.0304 0002461 297.8606  62.1996 15.27604171 62701
STARLINK-32606          
1 61978U 24210V   25353.46824429  .00017763  00000+0  65314-3 0  9992
2 61978  42.9968 272.6517 0001217  18.2308 341.8587 15.27596784 62619
